{
    "links": {
        "self": "http://www.neowsapp.com/rest/v1/neo/3289351?api_key=iIulBulltgU6a56xZRHN4H3l9WmuAYTsLGpBGhQ2"
    },
    "id": "3289351",
    "neo_reference_id": "3289351",
    "name": "(2005 RJ)",
    "designation": "2005 RJ",
    "nasa_jpl_url": "http://ssd.jpl.nasa.gov/sbdb.cgi?sstr=3289351",
    "absolute_magnitude_h": 22.3,
    "estimated_diameter": {
        "kilometers": {
            "estimated_diameter_min": 0.0921626549,
            "estimated_diameter_max": 0.2060819612
        },
        "meters": {
            "estimated_diameter_min": 92.1626548503,
            "estimated_diameter_max": 206.0819612321
        },
        "miles": {
            "estimated_diameter_min": 0.057267201,
            "estimated_diameter_max": 0.1280533543
        },
        "feet": {
            "estimated_diameter_min": 302.370924539,
            "estimated_diameter_max": 676.1219416887
        }
    },
    "is_potentially_hazardous_asteroid": false,
    "close_approach_data": [
        {
            "close_approach_date": "2005-09-08",
            "close_approach_date_full": "2005-Sep-08 21:47",
            "epoch_date_close_approach": 1126216020000,
            "relative_velocity": {
                "kilometers_per_second": "13.687004365",
                "kilometers_per_hour": "49273.2157141526",
                "miles_per_hour": "30616.4600641633"
            },
            "miss_distance": {
                "astronomical": "0.0477328891",
                "lunar": "18.5680938599",
                "kilometers": "7140738.538306217",
                "miles": "4437049.1789991146"
            },
            "orbiting_body": "Earth"
        }
    ],
    "orbital_data": {
        "orbit_id": "7",
        "orbit_determination_date": "2017-04-06 09:10:34",
        "first_observation_date": "2005-09-01",
        "last_observation_date": "2005-09-08",
        "data_arc_in_days": 7,
        "observations_used": 18,
        "orbit_uncertainty": "8",
        "minimum_orbit_intersection": ".0463391",
        "jupiter_tisserand_invariant": "3.064",
        "epoch_osculation": "2453617.5",
        "eccentricity": ".6644816863244455",
        "semi_major_axis": "2.578566916990027",
        "inclination": "6.340204076308373",
        "ascending_node_longitude": "141.4908004353794",
        "orbital_period": "1512.397798160879",
        "perihelion_distance": ".8651564236880674",
        "perihelion_argument": "255.2103173924285",
        "aphelion_distance": "4.291977410291987",
        "perihelion_time": "2453658.384369963155",
        "mean_anomaly": "350.26818658118",
        "mean_motion": ".2380326131377412",
        "equinox": "J2000",
        "orbit_class": {
            "orbit_class_type": "APO",
            "orbit_class_description": "Near-Earth asteroid orbits which cross the Earth’s orbit similar to that of 1862 Apollo",
            "orbit_class_range": "a (semi-major axis) > 1.0 AU; q (perihelion) < 1.017 AU"
        }
    },
    "is_sentry_object": false
}